GECAM-B                 
1 47235U 20094B   26058.19405615  .00003224  00000+0  23073-3 0  9996
2 47235  28.9982  10.8844 0010635 257.2071 102.7339 15.01652363285175
STARLINK-4466           
1 53656U 22105J   26068.62646056  .00000049  00000+0  83134-5 0  9998
2 53656  97.6037 310.1444 0000955 143.0445 217.0846 15.01258493193229
