[{"OBJECT_NAME":"GECAM-B","OBJECT_ID":"2020-094B","EPOCH":"2026-02-27T04:39:26.451360","MEAN_MOTION":15.01652363,"ECCENTRICITY":0.0010635,"INCLINATION":28.9982,"RA_OF_ASC_NODE":10.8844,"ARG_OF_PERICENTER":257.2071,"MEAN_ANOMALY":102.7339,"EPHEMERIS_TYPE":0,"CLASSIFICATION_TYPE":"U","NORAD_CAT_ID":47235,"ELEMENT_SET_NO":999,"REV_AT_EPOCH":28517,"BSTAR":0.00023073,"MEAN_MOTION_DOT":3.224e-5,"MEAN_MOTION_DDOT":0},{"OBJECT_NAME":"STARLINK-4466","OBJECT_ID":"2022-105J","EPOCH":"2026-03-09T15:02:06.192384","MEAN_MOTION":15.01258493,"ECCENTRICITY":9.55e-5,"INCLINATION":97.6037,"RA_OF_ASC_NODE":310.1444,"ARG_OF_PERICENTER":143.0445,"MEAN_ANOMALY":217.0846,"EPHEMERIS_TYPE":0,"CLASSIFICATION_TYPE":"U","NORAD_CAT_ID":53656,"ELEMENT_SET_NO":999,"REV_AT_EPOCH":19322,"BSTAR":8.3134e-6,"MEAN_MOTION_DOT":4.9e-7,"MEAN_MOTION_DDOT":0}]
